{
  "links" : {
    "next" : "https://api.nasa.gov/neo/rest/v1/neo/browse?page=39&size=20&api_key=jqAGvNAwUIBu4fl9FSOjdm3V4F7hIglRzI6pdX9d",
    "prev" : "https://api.nasa.gov/neo/rest/v1/neo/browse?page=37&size=20&api_key=jqAGvNAwUIBu4fl9FSOjdm3V4F7hIglRzI6pdX9d",
    "self" : "https://api.nasa.gov/neo/rest/v1/neo/browse?page=38&size=20&api_key=jqAGvNAwUIBu4fl9FSOjdm3V4F7hIglRzI6pdX9d"
  },
  "page" : {
    "size" : 20,
    "total_elements" : 20750,
    "total_pages" : 1038,
    "number" : 38
  },
  "near_earth_objects" : [ {
    "links" : {
      "self" : "https://api.nasa.gov/neo/rest/v1/neo/3758256?api_key=jqAGvNAwUIBu4fl9FSOjdm3V4F7hIglRzI6pdX9d"
    },
    "neo_reference_id" : "3758256",
    "name" : "(2016 QN44)",
    "designation" : "2016 QN44",
    "nasa_jpl_url" : "http://ssd.jpl.nasa.gov/sbdb.cgi?sstr=3758256",
    "absolute_magnitude_h" : 22.3,
    "estimated_diameter" : {
      "kilometers" : {
        "estimated_diameter_min" : 0.0921626549,
        "estimated_diameter_max" : 0.2060819612
      },
      "meters" : {
        "estimated_diameter_min" : 92.1626548503,
        "estimated_diameter_max" : 206.0819612321
      },
      "miles" : {
        "estimated_diameter_min" : 0.057267201,
        "estimated_diameter_max" : 0.1280533543
      },
      "feet" : {
        "estimated_diameter_min" : 302.370924539,
        "estimated_diameter_max" : 676.1219416887
      }
    },
    "is_potentially_hazardous_asteroid" : false,
    "close_approach_data" : [ {
      "close_approach_date" : "2016-09-09",
      "epoch_date_close_approach" : 1473404400000,
      "relative_velocity" : {
        "kilometers_per_second" : "15.0366863822",
        "kilometers_per_hour" : "54132.0709757936",
        "miles_per_hour" : "33635.5637682647"
      },
      "miss_distance" : {
        "astronomical" : "0.0736398888",
        "lunar" : "28.6459178925",
        "kilometers" : "11016371",
        "miles" : "6845255.5"
      },
      "orbiting_body" : "Earth"
    } ],
    "orbital_data" : {
      "orbit_id" : "4",
      "orbit_determination_date" : "2017-04-06 08:24:20",
      "first_observation_date" : "2016-08-29",
      "last_observation_date" : "2016-09-08",
      "data_arc_in_days" : 10,
      "observations_used" : 87,
      "orbit_uncertainty" : "8",
      "minimum_orbit_intersection" : ".0334163",
      "jupiter_tisserand_invariant" : "4.010",
      "epoch_osculation" : "2457631.5",
      "eccentricity" : ".514078137959863",
      "semi_major_axis" : "1.710832924235796",
      "inclination" : "10.02564142613368",
      "ascending_node_longitude" : "161.7063539120781",
      "orbital_period" : "817.3533107032627",
      "perihelion_distance" : ".8313311201842305",
      "perihelion_argument" : "252.8217381118022",
      "aphelion_distance" : "2.590334728287361",
      "perihelion_time" : "2457687.138124731881",
      "mean_anomaly" : "335.4944102615266",
      "mean_motion" : ".4404460045439234",
      "equinox" : "J2000",
      "orbit_class" : {
        "orbit_class_type" : "APO",
        "orbit_class_range" : "a (semi-major axis) > 1.0 AU; q (perihelion) < 1.017 AU",
        "orbit_class_description" : "Near-Earth asteroid orbits which cross the Earth’s orbit similar to that of 1862 Apollo"
      }
    },
    "is_sentry_object" : false
  }, {
    "links" : {
      "self" : "https://api.nasa.gov/neo/rest/v1/neo/3758253?api_key=jqAGvNAwUIBu4fl9FSOjdm3V4F7hIglRzI6pdX9d"
    },
    "neo_reference_id" : "3758253",
    "name" : "(2016 QO44)",
    "designation" : "2016 QO44",
    "nasa_jpl_url" : "http://ssd.jpl.nasa.gov/sbdb.cgi?sstr=3758253",
    "absolute_magnitude_h" : 23.9,
    "estimated_diameter" : {
      "kilometers" : {
        "estimated_diameter_min" : 0.04411182,
        "estimated_diameter_max" : 0.0986370281
      },
      "meters" : {
        "estimated_diameter_min" : 44.1118199997,
        "estimated_diameter_max" : 98.6370281305
      },
      "miles" : {
        "estimated_diameter_min" : 0.0274098057,
        "estimated_diameter_max" : 0.0612901888
      },
      "feet" : {
        "estimated_diameter_min" : 144.7238235278,
        "estimated_diameter_max" : 323.6123073718
      }
    },
    "is_potentially_hazardous_asteroid" : false,
    "close_approach_data" : [ {
      "close_approach_date" : "2016-08-20",
      "epoch_date_close_approach" : 1471676400000,
      "relative_velocity" : {
        "kilometers_per_second" : "9.3075013495",
        "kilometers_per_hour" : "33507.0048582444",
        "miles_per_hour" : "20819.9497687242"
      },
      "miss_distance" : {
        "astronomical" : "0.1360578514",
        "lunar" : "52.9265060425",
        "kilometers" : "20353966",
        "miles" : "12647368"
      },
      "orbiting_body" : "Earth"
    } ],
    "orbital_data" : {
      "orbit_id" : "5",
      "orbit_determination_date" : "2017-04-06 08:24:20",
      "first_observation_date" : "2016-08-29",
      "last_observation_date" : "2016-09-14",
      "data_arc_in_days" : 16,
      "observations_used" : 38,
      "orbit_uncertainty" : "8",
      "minimum_orbit_intersection" : ".119497",
      "jupiter_tisserand_invariant" : "4.391",
      "epoch_osculation" : "2457633.5",
      "eccentricity" : ".2719952981390351",
      "semi_major_axis" : "1.533493721840509",
      "inclination" : "17.19200605128331",
      "ascending_node_longitude" : "334.2390673019661",
      "orbital_period" : "693.6197175316366",
      "perihelion_distance" : "1.116390639774161",
      "perihelion_argument" : "337.351901361869",
      "aphelion_distance" : "1.950596803906857",
      "perihelion_time" : "2457600.256951418270",
      "mean_anomaly" : "17.25368697996529",
      "mean_motion" : ".5190163873673042",
      "equinox" : "J2000",
      "orbit_class" : {
        "orbit_class_type" : "AMO",
        "orbit_class_range" : "1.017 AU < q (perihelion) < 1.3 AU",
        "orbit_class_description" : "Near-Earth asteroid orbits similar to that of 1221 Amor"
      }
    },
    "is_sentry_object" : false
  }, {
    "links" : {
      "self" : "https://api.nasa.gov/neo/rest/v1/neo/3759243?api_key=jqAGvNAwUIBu4fl9FSOjdm3V4F7hIglRzI6pdX9d"
    },
    "neo_reference_id" : "3759243",
    "name" : "(2016 PY78)",
    "nasa_jpl_url" : "http://ssd.jpl.nasa.gov/sbdb.cgi?sstr=3759243",
    "absolute_magnitude_h" : 23.043,
    "estimated_diameter" : {
      "kilometers" : {
        "estimated_diameter_min" : 0.0654568311,
        "estimated_diameter_max" : 0.146365924
      },
      "meters" : {
        "estimated_diameter_min" : 65.4568311326,
        "estimated_diameter_max" : 146.3659240042
      },
      "miles" : {
        "estimated_diameter_min" : 0.0406729766,
        "estimated_diameter_max" : 0.0909475406
      },
      "feet" : {
        "estimated_diameter_min" : 214.753389853,
        "estimated_diameter_max" : 480.2031781098
      }
    },
    "is_potentially_hazardous_asteroid" : false,
    "close_approach_data" : [ {
      "close_approach_date" : "2016-10-25",
      "epoch_date_close_approach" : 1477378800000,
      "relative_velocity" : {
        "kilometers_per_second" : "5.908148552",
        "kilometers_per_hour" : "21269.3347872817",
        "miles_per_hour" : "13215.9374960196"
      },
      "miss_distance" : {
        "astronomical" : "0.0826751859",
        "lunar" : "32.1606483459",
        "kilometers" : "12368032",
        "miles" : "7685139"
      },
      "orbiting_body" : "Earth"
    } ],
    "orbital_data" : {
      "orbit_id" : "1",
      "orbit_determination_date" : "2016-09-08 20:42:04",
      "first_observation_date" : null,
      "last_observation_date" : null,
      "data_arc_in_days" : null,
      "observations_used" : null,
      "orbit_uncertainty" : "8",
      "minimum_orbit_intersection" : ".0780826",
      "jupiter_tisserand_invariant" : "3.433",
      "epoch_osculation" : "2457614.5",
      "eccentricity" : ".5234357898213402",
      "semi_major_axis" : "2.249588722471064",
      "inclination" : "1.711006735836366",
      "ascending_node_longitude" : "232.7005032317512",
      "orbital_period" : "1232.404047899773",
      "perihelion_distance" : "1.072073472751243",
      "perihelion_argument" : "154.8417273183411",
      "aphelion_distance" : "3.427103972190886",
      "perihelion_time" : "2457683.880481081335",
      "mean_anomaly" : "339.7331295431513",
      "mean_motion" : ".2921119908795345",
      "equinox" : "J2000",
      "orbit_class" : null
    },
    "is_sentry_object" : false
  } ]
}